{"type": "FeatureCollection", "features": [ {"type": "Feature", "properties": {"norad_id": 66930, "name": "STARLINK-36206", "group": "last-30-days", "lat": -43.333778936253424, "lon": -160.09664602898138, "alt_km": 425.32173562833304, "timestamp": "2025-12-27T23:26:36.074540+00:00", "meta": {"OBJECT_NAME": "STARLINK-36206", "OBJECT_ID": "2025-286F", "EPOCH": "2025-12-27T12:00:02.000160", "MEAN_MOTION": 15.50943018, "ECCENTRICITY": 0.0001164, "INCLINATION": 53.1595, "RA_OF_ASC_NODE": 337.166, "ARG_OF_PERICENTER": 73.1387, "MEAN_ANOMALY": 24.095, "EPHEMERIS_TYPE": 0, "CLASSIFICATION_TYPE": "U", "NORAD_CAT_ID": 66930, "ELEMENT_SET_NO": 999, "REV_AT_EPOCH": 436, "BSTAR": -0.038727, "MEAN_MOTION_DOT": -0.02035437, "MEAN_MOTION_DDOT": 0}, "tle": {"line1": "1 66930U 25286F   25361.50002315 -.02035437  00000+0 -38727-1 0  9993", "line2": "2 66930  53.1595 337.1660 0001164  73.1387  24.0950 15.50943018  4360"}}, "geometry": {"type": "Point", "coordinates": [-160.09664602898138, -43.333778936253424]}}, {"type": "Feature", "properties": {"norad_id": 66931, "name": "STARLINK-36130", "group": "last-30-days", "lat": -44.39111160891526, "lon": -157.8996108215444, "alt_km": 425.5061530566236, "timestamp": "2025-12-27T23:26:36.074552+00:00", "meta": {"OBJECT_NAME": "STARLINK-36130", "OBJECT_ID": "2025-286G", "EPOCH": "2025-12-27T12:00:02.000160", "MEAN_MOTION": 15.50927692, "ECCENTRICITY": 0.0001317, "INCLINATION": 53.1595, "RA_OF_ASC_NODE": 337.1627, "ARG_OF_PERICENTER": 60.8922, "MEAN_ANOMALY": 38.2626, "EPHEMERIS_TYPE": 0, "CLASSIFICATION_TYPE": "U", "NORAD_CAT_ID": 66931, "ELEMENT_SET_NO": 999, "REV_AT_EPOCH": 436, "BSTAR": -0.038362, "MEAN_MOTION_DOT": -0.02017417, "MEAN_MOTION_DDOT": 0}, "tle": {"line1": "1 66931U 25286G   25361.50002315 -.02017417  00000+0 -38362-1 0  9997", "line2": "2 66931  53.1595 337.1627 0001317  60.8922  38.2626 15.50927692  4369"}}, "geometry": {"type": "Point", "coordinates": [-157.8996108215444, -44.39111160891526]}}, {"type": "Feature", "properties": {"norad_id": 66932, "name": "STARLINK-36177", "group": "last-30-days", "lat": -45.41175572301195, "lon": -155.60870374588646, "alt_km": 425.446986753499, "timestamp": "2025-12-27T23:26:36.074562+00:00", "meta": {"OBJECT_NAME": "STARLINK-36177", "OBJECT_ID": "2025-286H", "EPOCH": "2025-12-27T12:00:02.000160", "MEAN_MOTION": 15.50948001, "ECCENTRICITY": 0.0001188, "INCLINATION": 53.1596, "RA_OF_ASC_NODE": 337.1577, "ARG_OF_PERICENTER": 75.0291, "MEAN_ANOMALY": 26.0385, "EPHEMERIS_TYPE": 0, "CLASSIFICATION_TYPE": "U", "NORAD_CAT_ID": 66932, "ELEMENT_SET_NO": 999, "REV_AT_EPOCH": 436, "BSTAR": -0.038926, "MEAN_MOTION_DOT": -0.02045115, "MEAN_MOTION_DDOT": 0}, "tle": {"line1": "1 66932U 25286H   25361.50002315 -.02045115  00000+0 -38926-1 0  9990", "line2": "2 66932  53.1596 337.1577 0001188  75.0291  26.0385 15.50948001  4362"}}, "geometry": {"type": "Point", "coordinates": [-155.60870374588646, -45.41175572301195]}}, {"type": "Feature", "properties": {"norad_id": 66933, "name": "STARLINK-36157", "group": "last-30-days", "lat": -46.38044870692549, "lon": -153.24444184430448, "alt_km": 425.62994188264656, "timestamp": "2025-12-27T23:26:36.074571+00:00", "meta": {"OBJECT_NAME": "STARLINK-36157", "OBJECT_ID": "2025-286J", "EPOCH": "2025-12-27T12:00:02.000160", "MEAN_MOTION": 15.50954167, "ECCENTRICITY": 0.0001335, "INCLINATION": 53.1595, "RA_OF_ASC_NODE": 337.154, "ARG_OF_PERICENTER": 65.3486, "MEAN_ANOMALY": 37.6336, "EPHEMERIS_TYPE": 0, "CLASSIFICATION_TYPE": "U", "NORAD_CAT_ID": 66933, "ELEMENT_SET_NO": 999, "REV_AT_EPOCH": 436, "BSTAR": -0.039092, "MEAN_MOTION_DOT": -0.02053377, "MEAN_MOTION_DDOT": 0}, "tle": {"line1": "1 66933U 25286J   25361.50002315 -.02053377  00000+0 -39092-1 0  9995", "line2": "2 66933  53.1595 337.1540 0001335  65.3486  37.6336 15.50954167  4368"}}, "geometry": {"type": "Point", "coordinates": [-153.24444184430448, -46.38044870692549]}}, {"type": "Feature", "properties": {"norad_id": 66934, "name": "STARLINK-36153", "group": "last-30-days", "lat": -47.29443514404362, "lon": -150.80835090805388, "alt_km": 425.7639892454781, "timestamp": "2025-12-27T23:26:36.074581+00:00", "meta": {"OBJECT_NAME": "STARLINK-36153", "OBJECT_ID": "2025-286K", "EPOCH": "2025-12-27T12:00:02.000160", "MEAN_MOTION": 15.50941423, "ECCENTRICITY": 0.0001493, "INCLINATION": 53.1594, "RA_OF_ASC_NODE": 337.1503, "ARG_OF_PERICENTER": 52.0401, "MEAN_ANOMALY": 52.8605, "EPHEMERIS_TYPE": 0, "CLASSIFICATION_TYPE": "U", "NORAD_CAT_ID": 66934, "ELEMENT_SET_NO": 999, "REV_AT_EPOCH": 436, "BSTAR": -0.038808, "MEAN_MOTION_DOT": -0.02039336, "MEAN_MOTION_DDOT": 0}, "tle": {"line1": "1 66934U 25286K   25361.50002315 -.02039336  00000+0 -38808-1 0  9999", "line2": "2 66934  53.1594 337.1503 0001493  52.0401  52.8605 15.50941423  4361"}}, "geometry": {"type": "Point", "coordinates": [-150.80835090805388, -47.29443514404362]}}, {"type": "Feature", "properties": {"norad_id": 66935, "name": "STARLINK-36127", "group": "last-30-days", "lat": -48.164519300824985, "lon": -148.26025441688842, "alt_km": 425.64883699044003, "timestamp": "2025-12-27T23:26:36.074591+00:00", "meta": {"OBJECT_NAME": "STARLINK-36127", "OBJECT_ID": "2025-286L", "EPOCH": "2025-12-27T12:00:02.000160", "MEAN_MOTION": 15.50940811, "ECCENTRICITY": 0.0001325, "INCLINATION": 53.1593, "RA_OF_ASC_NODE": 337.1456, "ARG_OF_PERICENTER": 71.4915, "MEAN_ANOMALY": 35.3263, "EPHEMERIS_TYPE": 0, "CLASSIFICATION_TYPE": "U", "NORAD_CAT_ID": 66935, "ELEMENT_SET_NO": 999, "REV_AT_EPOCH": 436, "BSTAR": -0.038649, "MEAN_MOTION_DOT": -0.02031735, "MEAN_MOTION_DDOT": 0}, "tle": {"line1": "1 66935U 25286L   25361.50002315 -.02031735  00000+0 -38649-1 0  9998", "line2": "2 66935  53.1593 337.1456 0001325  71.4915  35.3263 15.50940811  4363"}}, "geometry": {"type": "Point", "coordinates": [-148.26025441688842, -48.164519300824985]}}, {"type": "Feature", "properties": {"norad_id": 66936, "name": "STARLINK-36160", "group": "last-30-days", "lat": -48.97136436491229, "lon": -145.64224837636402, "alt_km": 425.69105373951516, "timestamp": "2025-12-27T23:26:36.074602+00:00", "meta": {"OBJECT_NAME": "STARLINK-36160", "OBJECT_ID": "2025-286M", "EPOCH": "2025-12-27T12:00:02.000160", "MEAN_MOTION": 15.5093758, "ECCENTRICITY": 0.000135, "INCLINATION": 53.1592, "RA_OF_ASC_NODE": 337.1422, "ARG_OF_PERICENTER": 73.5575, "MEAN_ANOMALY": 35.1789, "EPHEMERIS_TYPE": 0, "CLASSIFICATION_TYPE": "U", "NORAD_CAT_ID": 66936, "ELEMENT_SET_NO": 999, "REV_AT_EPOCH": 436, "BSTAR": -0.03858, "MEAN_MOTION_DOT": -0.02028285, "MEAN_MOTION_DDOT": 0}, "tle": {"line1": "1 66936U 25286M   25361.50002315 -.02028285  00000+0 -38580-1 0  9999", "line2": "2 66936  53.1592 337.1422 0001350  73.5575  35.1789 15.50937580  4369"}}, "geometry": {"type": "Point", "coordinates": [-145.64224837636402, -48.97136436491229]}}, {"type": "Feature", "properties": {"norad_id": 66937, "name": "STARLINK-36165", "group": "last-30-days", "lat": -49.71708414788323, "lon": -142.94237343897152, "alt_km": 425.6305545677533, "timestamp": "2025-12-27T23:26:36.074616+00:00", "meta": {"OBJECT_NAME": "STARLINK-36165", "OBJECT_ID": "2025-286N", "EPOCH": "2025-12-27T12:00:02.000160", "MEAN_MOTION": 15.50940869, "ECCENTRICITY": 0.0001222, "INCLINATION": 53.1593, "RA_OF_ASC_NODE": 337.1379, "ARG_OF_PERICENTER": 70.506, "MEAN_ANOMALY": 40.1455, "EPHEMERIS_TYPE": 0, "CLASSIFICATION_TYPE": "U", "NORAD_CAT_ID": 66937, "ELEMENT_SET_NO": 999, "REV_AT_EPOCH": 436, "BSTAR": -0.038641, "MEAN_MOTION_DOT": -0.02031308, "MEAN_MOTION_DDOT": 0}, "tle": {"line1": "1 66937U 25286N   25361.50002315 -.02031308  00000+0 -38641-1 0  9998", "line2": "2 66937  53.1593 337.1379 0001222  70.5060  40.1455 15.50940869  4366"}}, "geometry": {"type": "Point", "coordinates": [-142.94237343897152, -49.71708414788323]}}, {"type": "Feature", "properties": {"norad_id": 66938, "name": "STARLINK-36155", "group": "last-30-days", "lat": -50.39754966969393, "lon": -140.16403270392735, "alt_km": 425.7011906334583, "timestamp": "2025-12-27T23:26:36.074626+00:00", "meta": {"OBJECT_NAME": "STARLINK-36155", "OBJECT_ID": "2025-286P", "EPOCH": "2025-12-27T12:00:02.000160", "MEAN_MOTION": 15.50939437, "ECCENTRICITY": 0.0001295, "INCLINATION": 53.1594, "RA_OF_ASC_NODE": 337.1332, "ARG_OF_PERICENTER": 68.3414, "MEAN_ANOMALY": 44.2268, "EPHEMERIS_TYPE": 0, "CLASSIFICATION_TYPE": "U", "NORAD_CAT_ID": 66938, "ELEMENT_SET_NO": 999, "REV_AT_EPOCH": 436, "BSTAR": -0.038596, "MEAN_MOTION_DOT": -0.02029115, "MEAN_MOTION_DDOT": 0}, "tle": {"line1": "1 66938U 25286P   25361.50002315 -.02029115  00000+0 -38596-1 0  9991", "line2": "2 66938  53.1594 337.1332 0001295  68.3414  44.2268 15.50939437  4361"}}, "geometry": {"type": "Point", "coordinates": [-140.16403270392735, -50.39754966969393]}}, {"type": "Feature", "properties": {"norad_id": 66939, "name": "STARLINK-36154", "group": "last-30-days", "lat": -51.550884263212616, "lon": -134.37632154207716, "alt_km": 425.7818196904427, "timestamp": "2025-12-27T23:26:36.074638+00:00", "meta": {"OBJECT_NAME": "STARLINK-36154", "OBJECT_ID": "2025-286Q", "EPOCH": "2025-12-27T12:00:02.000160", "MEAN_MOTION": 15.50940152, "ECCENTRICITY": 0.0001352, "INCLINATION": 53.1595, "RA_OF_ASC_NODE": 337.1253, "ARG_OF_PERICENTER": 74.694, "MEAN_ANOMALY": 41.7086, "EPHEMERIS_TYPE": 0, "CLASSIFICATION_TYPE": "U", "NORAD_CAT_ID": 66939, "ELEMENT_SET_NO": 999, "REV_AT_EPOCH": 436, "BSTAR": -0.038658, "MEAN_MOTION_DOT": -0.02032106, "MEAN_MOTION_DDOT": 0}, "tle": {"line1": "1 66939U 25286Q   25361.50002315 -.02032106  00000+0 -38658-1 0  9995", "line2": "2 66939  53.1595 337.1253 0001352  74.6940  41.7086 15.50940152  4369"}}, "geometry": {"type": "Point", "coordinates": [-134.37632154207716, -51.550884263212616]}}]}